SEEDS II (CO-66)        
1 32791U 08021J   26068.92109284  .00023758  00000+0  84213-3 0  9995
2 32791  97.7519  62.3611 0001448 359.2618   0.8619 15.29097235972108
STARLINK-31220          
1 59039U 24038S   26068.91903887  .00004731  00000+0  18130-3 0  9990
2 59039  42.9980  25.6840 0000217 175.7406 184.3447 15.27583421114796
